{
  "type": "FeatureCollection",
  "features": [
    {
      "type": "Feature",
      "properties": {
        "norad_id": 42988,
        "name": "SKYSAT-C10",
        "group": "resource",
        "lat": 33.11890736279909,
        "lon": 112.3780198876875,
        "alt_km": 466.5338429983749,
        "timestamp": "2025-12-12T09:49:08.385504+00:00",
        "meta_object_name": "SKYSAT-C10",
        "meta_object_id": "2017-068B",
        "meta_epoch": "2025-12-11T21:07:59.265984",
        "meta_mean_motion": 15.32032287,
        "meta_eccentricity": 0.0005338,
        "meta_inclination": 97.4255,
        "meta_ra_of_asc_node": 116.7289,
        "meta_arg_of_pericenter": 105.8367,
        "meta_mean_anomaly": 254.3464,
        "meta_ephemeris_type": 0,
        "meta_classification_type": "U",
        "meta_norad_cat_id": 42988,
        "meta_element_set_no": 999,
        "meta_rev_at_epoch": 45366,
        "meta_bstar": 0.00051102,
        "meta_mean_motion_dot": 0.00015748,
        "meta_mean_motion_ddot": 0,
        "tle_line1": "1 42988U 17068B   25345.88054706  .00015748  00000+0  51102-3 0  9996",
        "tle_line2": "2 42988  97.4255 116.7289 0005338 105.8367 254.3464 15.32032287453663"
      },
      "geometry": {
        "type": "Point",
        "coordinates": [
          112.3780198876875,
          33.11890736279909
        ]
      }
    },
    {
      "type": "Feature",
      "properties": {
        "norad_id": 42989,
        "name": "SKYSAT-C9",
        "group": "resource",
        "lat": -55.81598536277036,
        "lon": -74.40053516302484,
        "alt_km": 471.11969115602733,
        "timestamp": "2025-12-12T09:49:08.385514+00:00",
        "meta_object_name": "SKYSAT-C9",
        "meta_object_id": "2017-068C",
        "meta_epoch": "2025-12-11T21:50:56.342976",
        "meta_mean_motion": 15.36015875,
        "meta_eccentricity": 0.0010638,
        "meta_inclination": 97.4186,
        "meta_ra_of_asc_node": 116.1574,
        "meta_arg_of_pericenter": 90.1838,
        "meta_mean_anomaly": 270.0624,
        "meta_ephemeris_type": 0,
        "meta_classification_type": "U",
        "meta_norad_cat_id": 42989,
        "meta_element_set_no": 999,
        "meta_rev_at_epoch": 45395,
        "meta_bstar": 0.00055434,
        "meta_mean_motion_dot": 0.0001942,
        "meta_mean_motion_ddot": 0,
        "tle_line1": "1 42989U 17068C   25345.91037434  .00019420  00000+0  55434-3 0  9993",
        "tle_line2": "2 42989  97.4186 116.1574 0010638  90.1838 270.0624 15.36015875453959"
      },
      "geometry": {
        "type": "Point",
        "coordinates": [
          -74.40053516302484,
          -55.81598536277036
        ]
      }
    },
    {
      "type": "Feature",
      "properties": {
        "norad_id": 42990,
        "name": "SKYSAT-C8",
        "group": "resource",
        "lat": -30.75278009057696,
        "lon": -68.04466258710721,
        "alt_km": 474.09604181094164,
        "timestamp": "2025-12-12T09:49:08.385525+00:00",
        "meta_object_name": "SKYSAT-C8",
        "meta_object_id": "2017-068D",
        "meta_epoch": "2025-12-11T21:56:05.347392",
        "meta_mean_motion": 15.32889856,
        "meta_eccentricity": 0.0001633,
        "meta_inclination": 97.4277,
        "meta_ra_of_asc_node": 115.9102,
        "meta_arg_of_pericenter": 352.601,
        "meta_mean_anomaly": 7.5208,
        "meta_ephemeris_type": 0,
        "meta_classification_type": "U",
        "meta_norad_cat_id": 42990,
        "meta_element_set_no": 999,
        "meta_rev_at_epoch": 45358,
        "meta_bstar": 0.00052146,
        "meta_mean_motion_dot": 0.00016504,
        "meta_mean_motion_ddot": 0,
        "tle_line1": "1 42990U 17068D   25345.91395078  .00016504  00000+0  52146-3 0  9993",
        "tle_line2": "2 42990  97.4277 115.9102 0001633 352.6010   7.5208 15.32889856453583"
      },
      "geometry": {
        "type": "Point",
        "coordinates": [
          -68.04466258710721,
          -30.75278009057696
        ]
      }
    },
    {
      "type": "Feature",
      "properties": {
        "norad_id": 42991,
        "name": "SKYSAT-C7",
        "group": "resource",
        "lat": 65.93592897684368,
        "lon": 100.46095389432257,
        "alt_km": 457.32067782756985,
        "timestamp": "2025-12-12T09:49:08.385535+00:00",
        "meta_object_name": "SKYSAT-C7",
        "meta_object_id": "2017-068E",
        "meta_epoch": "2025-12-11T20:59:22.535232",
        "meta_mean_motion": 15.32294521,
        "meta_eccentricity": 0.0007687,
        "meta_inclination": 97.4285,
        "meta_ra_of_asc_node": 116.9127,
        "meta_arg_of_pericenter": 59.5995,
        "meta_mean_anomaly": 300.6005,
        "meta_ephemeris_type": 0,
        "meta_classification_type": "U",
        "meta_norad_cat_id": 42991,
        "meta_element_set_no": 999,
        "meta_rev_at_epoch": 45364,
        "meta_bstar": 0.00051899,
        "meta_mean_motion_dot": 0.00016134,
        "meta_mean_motion_ddot": 0,
        "tle_line1": "1 42991U 17068E   25345.87456638  .00016134  00000+0  51899-3 0  9992",
        "tle_line2": "2 42991  97.4285 116.9127 0007687  59.5995 300.6005 15.32294521453649"
      },
      "geometry": {
        "type": "Point",
        "coordinates": [
          100.46095389432257,
          65.93592897684368
        ]
      }
    },
    {
      "type": "Feature",
      "properties": {
        "norad_id": 42992,
        "name": "SKYSAT-C6",
        "group": "resource",
        "lat": -5.133460080684309,
        "lon": -62.784098635976534,
        "alt_km": 475.9041384760767,
        "timestamp": "2025-12-12T09:49:08.385546+00:00",
        "meta_object_name": "SKYSAT-C6",
        "meta_object_id": "2017-068F",
        "meta_epoch": "2025-12-11T22:02:13.295616",
        "meta_mean_motion": 15.31460261,
        "meta_eccentricity": 0.0005191,
        "meta_inclination": 97.4318,
        "meta_ra_of_asc_node": 117.3957,
        "meta_arg_of_pericenter": 84.6531,
        "meta_mean_anomaly": 275.5302,
        "meta_ephemeris_type": 0,
        "meta_classification_type": "U",
        "meta_norad_cat_id": 42992,
        "meta_element_set_no": 999,
        "meta_rev_at_epoch": 45363,
        "meta_bstar": 0.00052081,
        "meta_mean_motion_dot": 0.00015766,
        "meta_mean_motion_ddot": 0,
        "tle_line1": "1 42992U 17068F   25345.91820944  .00015766  00000+0  52081-3 0  9997",
        "tle_line2": "2 42992  97.4318 117.3957 0005191  84.6531 275.5302 15.31460261453630"
      },
      "geometry": {
        "type": "Point",
        "coordinates": [
          -62.784098635976534,
          -5.133460080684309
        ]
      }
    },
    {
      "type": "Feature",
      "properties": {
        "norad_id": 43111,
        "name": "CARTOSAT-2F",
        "group": "resource",
        "lat": -53.47469133351902,
        "lon": 54.20253987852706,
        "alt_km": 515.7575773275366,
        "timestamp": "2025-12-12T09:49:08.385556+00:00",
        "meta_object_name": "CARTOSAT-2F",
        "meta_object_id": "2018-004A",
        "meta_epoch": "2025-12-12T03:44:02.749632",
        "meta_mean_motion": 15.19270715,
        "meta_eccentricity": 0.0001026,
        "meta_inclination": 97.4319,
        "meta_ra_of_asc_node": 43.802,
        "meta_arg_of_pericenter": 140.089,
        "meta_mean_anomaly": 220.042,
        "meta_ephemeris_type": 0,
        "meta_classification_type": "U",
        "meta_norad_cat_id": 43111,
        "meta_element_set_no": 999,
        "meta_rev_at_epoch": 43893,
        "meta_bstar": 0.00047029,
        "meta_mean_motion_dot": 9.856e-05,
        "meta_mean_motion_ddot": 0,
        "tle_line1": "1 43111U 18004A   25346.15558738  .00009856  00000+0  47029-3 0  9997",
        "tle_line2": "2 43111  97.4319  43.8020 0001026 140.0890 220.0420 15.19270715438938"
      },
      "geometry": {
        "type": "Point",
        "coordinates": [
          54.20253987852706,
          -53.47469133351902
        ]
      }
    },
    {
      "type": "Feature",
      "properties": {
        "norad_id": 43259,
        "name": "GAOFEN-1 02",
        "group": "resource",
        "lat": 55.833940466176244,
        "lon": -123.71988197137631,
        "alt_km": 635.468942006708,
        "timestamp": "2025-12-12T09:49:08.385567+00:00",
        "meta_object_name": "GAOFEN-1 02",
        "meta_object_id": "2018-031A",
        "meta_epoch": "2025-12-12T04:22:58.456128",
        "meta_mean_motion": 14.76413015,
        "meta_eccentricity": 0.0001763,
        "meta_inclination": 98.0804,
        "meta_ra_of_asc_node": 43.9715,
        "meta_arg_of_pericenter": 219.7799,
        "meta_mean_anomaly": 140.3281,
        "meta_ephemeris_type": 0,
        "meta_classification_type": "U",
        "meta_norad_cat_id": 43259,
        "meta_element_set_no": 999,
        "meta_rev_at_epoch": 41510,
        "meta_bstar": 0.00021421,
        "meta_mean_motion_dot": 1.437e-05,
        "meta_mean_motion_ddot": 0,
        "tle_line1": "1 43259U 18031A   25346.18262102  .00001437  00000+0  21421-3 0  9995",
        "tle_line2": "2 43259  98.0804  43.9715 0001763 219.7799 140.3281 14.76413015415106"
      },
      "geometry": {
        "type": "Point",
        "coordinates": [
          -123.71988197137631,
          55.833940466176244
        ]
      }
    }
  ]
}